CCSDS_OEM_VERS = 1.0
CREATION_DATE  = 2017-05-11T11:52:40
ORIGINATOR     = GMAT USER

META_START
OBJECT_NAME          = MOPSSat_alt_35785_km_RAAN_270_036
OBJECT_ID            = SatId
CENTER_NAME          = Earth
REF_FRAME            = EME2000
TIME_SYSTEM          = UTC
START_TIME           = 2017-01-01T00:00:00.000
USEABLE_START_TIME   = 2017-01-01T00:00:00.000
USEABLE_STOP_TIME    = 2017-01-02T00:00:00.000
STOP_TIME            = 2017-01-02T00:00:00.000
INTERPOLATION        = Lagrange
INTERPOLATION_DEGREE = 7 
META_STOP


                                                                                   

2017-01-01T06:06:40.000   4.213418548763250e+04   1.411362070855594e+03   7.345267484763173e+02  -1.029271393809402e-01   3.072895730484665e+00  -1.856370804475385e-03
2017-01-01T06:06:50.000   4.213314501350754e+04   1.442090649878806e+03   7.345079893373141e+02  -1.051676764046152e-01   3.072819801822477e+00  -1.895456824603757e-03
2017-01-01T06:07:00.000   4.213208213427968e+04   1.472818461754923e+03   7.344888393430957e+02  -1.074081576160069e-01   3.072742239167758e+00  -1.934541805448759e-03
2017-01-01T06:07:10.000   4.213099685051253e+04   1.503545490128109e+03   7.344692985041504e+02  -1.096485818227470e-01   3.072663042561661e+00  -1.973625726199230e-03
2017-01-01T06:07:20.000   4.212988916279486e+04   1.534271718331498e+03   7.344493668314125e+02  -1.118889478097886e-01   3.072582212047178e+00  -2.012708565648460e-03
2017-01-01T06:07:30.000   4.212875907172382e+04   1.564997129785057e+03   7.344290443359611e+02  -1.141292543684164e-01   3.072499747667909e+00  -2.051790302700247e-03
2017-01-01T06:07:40.000   4.212760657791119e+04   1.595721707838847e+03   7.344083310291314e+02  -1.163695002848182e-01   3.072415649468525e+00  -2.090870916169536e-03
2017-01-01T06:07:50.000   4.212643168195759e+04   1.626445436466390e+03   7.343872269220511e+02  -1.186096843906404e-01   3.072329917492874e+00  -2.129950385664353e-03
2017-01-01T06:08:00.000   4.212523438447793e+04   1.657168299571311e+03   7.343657320261008e+02  -1.208498055124333e-01   3.072242551785857e+00  -2.169028690703885e-03
2017-01-01T06:08:10.000   4.212401468609627e+04   1.687890281144126e+03   7.343438463528171e+02  -1.230898624830830e-01   3.072153552393030e+00  -2.208105810917904e-03
2017-01-01T06:08:20.000   4.212277258745833e+04   1.718611364864243e+03   7.343215699141210e+02  -1.253298541127915e-01   3.072062919361536e+00  -2.247181725540526e-03
2017-01-01T06:08:30.000   4.212150808922302e+04   1.749331534395499e+03   7.342989027221649e+02  -1.275697792106253e-01   3.071970652739478e+00  -2.286256413786122e-03
2017-01-01T06:08:40.000   4.212022119206120e+04   1.780050773386112e+03   7.342758447893101e+02  -1.298096365845126e-01   3.071876752575829e+00  -2.325329854849264e-03
2017-01-01T06:08:50.000   4.211891189667100e+04   1.810769065173445e+03   7.342523961283985e+02  -1.320494250197158e-01   3.071781218921554e+00  -2.364402027529193e-03
2017-01-01T06:09:00.000   4.211758020375836e+04   1.841486393181746e+03   7.342285567524076e+02  -1.342891433078325e-01   3.071684051828182e+00  -2.403472910735722e-03
2017-01-01T06:09:10.000   4.211622611404444e+04   1.872202740762481e+03   7.342043266745828e+02  -1.365287902351534e-01   3.071585251348357e+00  -2.442542483286160e-03
2017-01-01T06:09:20.000   4.211484962823468e+04   1.902918091899112e+03   7.341797059078807e+02  -1.387683646340512e-01   3.071484817533569e+00  -2.481610724801747e-03
2017-01-01T06:09:30.000   4.211345074704956e+04   1.933632430500548e+03   7.341546944655242e+02  -1.410078653314621e-01   3.071382750436412e+00  -2.520677614808954e-03
2017-01-01T06:09:40.000   4.211202947121701e+04   1.964345740583542e+03   7.341292923608622e+02  -1.432472911621858e-01   3.071279050110018e+00  -2.559743132971497e-03
2017-01-01T06:09:50.000   4.211058580149245e+04   1.995058005782186e+03   7.341034996077325e+02  -1.454866409331212e-01   3.071173716609523e+00  -2.598807258466412e-03
2017-01-01T06:10:00.000   4.210911973864260e+04   2.025769209752724e+03   7.340773162201677e+02  -1.477259134527820e-01   3.071066749990889e+00  -2.637869970498985e-03
2017-01-01T06:10:10.000   4.210763128344899e+04   2.056479336083197e+03   7.340507422124621e+02  -1.499651075247093e-01   3.070958150311158e+00  -2.676931248187807e-03
2017-01-01T06:10:20.000   4.210612043670845e+04   2.087188368318087e+03   7.340237775991778e+02  -1.522042219492682e-01   3.070847917628490e+00  -2.715991070596140e-03
2017-01-01T06:10:30.000   4.210458719923032e+04   2.117896289988838e+03   7.339964223950932e+02  -1.544432555258732e-01   3.070736052001950e+00  -2.755049416770725e-03
2017-01-01T06:10:40.000   4.210303157183601e+04   2.148603084624958e+03   7.339686766152007e+02  -1.566822070537976e-01   3.070622553491487e+00  -2.794106265755900e-03
2017-01-01T06:10:50.000   4.210145355535418e+04   2.179308735863865e+03   7.339405402746149e+02  -1.589210753401832e-01   3.070507422157581e+00  -2.833161596733326e-03
2017-01-01T06:11:00.000   4.209985315062360e+04   2.210013227377650e+03   7.339120133886262e+02  -1.611598591946997e-01   3.070390658061442e+00  -2.872215388928817e-03
2017-01-01T06:11:10.000   4.209823035849319e+04   2.240716542873089e+03   7.338830959727031e+02  -1.633985574295462e-01   3.070272261265027e+00  -2.911267621612382e-03
2017-01-01T06:11:20.000   4.209658517981754e+04   2.271418666164813e+03   7.338537880424090e+02  -1.656371688647859e-01   3.070152231830697e+00  -2.950318274191263e-03
2017-01-01T06:11:30.000   4.209491761546305e+04   2.302119581065547e+03   7.338240896135146e+02  -1.678756923203430e-01   3.070030569821684e+00  -2.989367326070351e-03
2017-01-01T06:11:40.000   4.209322766630894e+04   2.332819271375057e+03   7.337940007020150e+02  -1.701141266151971e-01   3.069907275302149e+00  -3.028414756638116e-03
2017-01-01T06:11:50.000   4.209151533324747e+04   2.363517720849507e+03   7.337635213241326e+02  -1.723524705651482e-01   3.069782348337206e+00  -3.067460545227621e-03
2017-01-01T06:12:00.000   4.208978061718692e+04   2.394214913177020e+03   7.337326514963711e+02  -1.745907229810360e-01   3.069655788993131e+00  -3.106504671085455e-03
2017-01-01T06:12:10.000   4.208802351904591e+04   2.424910832067933e+03   7.337013912354146e+02  -1.768288826753195e-01   3.069527597336961e+00  -3.145547113486522e-03
2017-01-01T06:12:20.000   4.208624403977863e+04   2.455605460850468e+03   7.336697405585755e+02  -1.790669484325963e-01   3.069397773438326e+00  -3.184587851219779e-03
2017-01-01T06:12:30.000   4.208444218034475e+04   2.486298782960742e+03   7.336376994832600e+02  -1.813049190453312e-01   3.069266317367254e+00  -3.223626863211481e-03
2017-01-01T06:12:40.000   4.208261794172033e+04   2.516990781760545e+03   7.336052680271594e+02  -1.835427933005694e-01   3.069133229194962e+00  -3.262664128293412e-03
2017-01-01T06:12:50.000   4.208077132485610e+04   2.547681441243357e+03   7.335724462075138e+02  -1.857805700314158e-01   3.068998508990830e+00  -3.301699626100863e-03
2017-01-01T06:13:00.000   4.207890233071891e+04   2.578370745330124e+03   7.335392340418445e+02  -1.880182480656856e-01   3.068862156825405e+00  -3.340733336176928e-03
2017-01-01T06:13:10.000   4.207701096028271e+04   2.609058678028856e+03   7.335056315477957e+02  -1.902558262375432e-01   3.068724172769753e+00  -3.379765238175507e-03
2017-01-01T06:13:20.000   4.207509721455001e+04   2.639745223037007e+03   7.334716387435147e+02  -1.924933033585087e-01   3.068584556897022e+00  -3.418795311355557e-03
2017-01-01T06:13:30.000   4.207316109453681e+04   2.670430364036744e+03   7.334372556473868e+02  -1.947306782389880e-01   3.068443309281348e+00  -3.457823534956667e-03
2017-01-01T06:13:40.000   4.207120260127140e+04   2.701114084694893e+03   7.334024822780096e+02  -1.969679496882680e-01   3.068300429997758e+00  -3.496849888198960e-03
2017-01-01T06:13:50.000   4.206922173581612e+04   2.731796368368085e+03   7.333673186545831e+02  -1.992051164930187e-01   3.068155919123765e+00  -3.535874349908104e-03
2017-01-01T06:14:00.000   4.206721849923925e+04   2.762477198499994e+03   7.333317647964082e+02  -2.014421774462561e-01   3.068009776737313e+00  -3.574896899020530e-03
2017-01-01T06:14:10.000   4.206519289262564e+04   2.793156558464825e+03   7.332958207230762e+02  -2.036791313359318e-01   3.067862002917555e+00  -3.613917514384387e-03
2017-01-01T06:14:20.000   4.206314491703124e+04   2.823834432259675e+03   7.332594864536618e+02  -2.059159769954144e-01   3.067712597741532e+00  -3.652936175640124e-03
2017-01-01T06:14:30.000   4.206107457352832e+04   2.854510803812183e+03   7.332227620075272e+02  -2.081527132530084e-01   3.067561561287484e+00  -3.691952862339911e-03
2017-01-01T06:14:40.000   4.205898186319577e+04   2.885185657137099e+03   7.331856474041475e+02  -2.103893389433699e-01   3.067408893634121e+00  -3.730967554146783e-03
2017-01-01T06:14:50.000   4.205686678714302e+04   2.915858975938812e+03   7.331481426635365e+02  -2.126258528785253e-01   3.067254594862391e+00  -3.769980230329084e-03
2017-01-01T06:15:00.000   4.205472934649310e+04   2.946530743906515e+03   7.331102478059466e+02  -2.148622538693932e-01   3.067098665054226e+00  -3.808990870135903e-03
2017-01-01T06:15:10.000   4.205256954238148e+04   2.977200944714133e+03   7.330719628518461e+02  -2.170985407257791e-01   3.066941104292467e+00  -3.847999452796966e-03
2017-01-01T06:15:20.000   4.205038737597966e+04   3.007869561725636e+03   7.330332878223401e+02  -2.193347122348882e-01   3.066781912662584e+00  -3.887005957147840e-03
2017-01-01T06:15:30.000   4.204818284846453e+04   3.038536578392063e+03   7.329942227386238e+02  -2.215707671902746e-01   3.066621090250438e+00  -3.926010362134899e-03
2017-01-01T06:15:40.000   4.204595596103023e+04   3.069201978092137e+03   7.329547676221971e+02  -2.238067043802194e-01   3.066458637143151e+00  -3.965012646612602e-03
